{
  "type": "FeatureCollection",
  "features": [
    {
      "type": "Feature",
      "properties": {
        "norad_id": 34765,
        "name": "IRIDIUM 33 DEB",
        "group": "iridium-33-debris",
        "lat": -81.2116330996457,
        "lon": 9.819091276137785,
        "alt_km": 758.1375153837907,
        "timestamp": "2025-12-09T04:51:47.876930+00:00",
        "meta_object_name": "IRIDIUM 33 DEB",
        "meta_object_id": "1997-051LJ",
        "meta_epoch": "2025-12-08T02:42:04.212864",
        "meta_mean_motion": 14.40446834,
        "meta_eccentricity": 0.00149899,
        "meta_inclination": 86.3396,
        "meta_ra_of_asc_node": 34.7471,
        "meta_arg_of_pericenter": 227.7302,
        "meta_mean_anomaly": 160.9531,
        "meta_ephemeris_type": 0,
        "meta_classification_type": "U",
        "meta_norad_cat_id": 34765,
        "meta_element_set_no": 999,
        "meta_rev_at_epoch": 87547,
        "meta_bstar": 0.00060973087,
        "meta_mean_motion_dot": 1.958e-05,
        "meta_mean_motion_ddot": 0,
        "tle_line1": "1 34765U 97051LJ  25342.11254876  .00001958  00000+0  60973-3 0  9997",
        "tle_line2": "2 34765  86.3396  34.7471 0014989 227.7302 160.9531 14.40446834875476"
      },
      "geometry": {
        "type": "Point",
        "coordinates": [
          9.819091276137785,
          -81.2116330996457
        ]
      }
    },
    {
      "type": "Feature",
      "properties": {
        "norad_id": 34833,
        "name": "IRIDIUM 33 DEB",
        "group": "iridium-33-debris",
        "lat": -52.19629297939976,
        "lon": -122.81788316100565,
        "alt_km": 733.4588630131266,
        "timestamp": "2025-12-09T04:51:47.876940+00:00",
        "meta_object_name": "IRIDIUM 33 DEB",
        "meta_object_id": "1997-051MH",
        "meta_epoch": "2025-12-08T11:20:22.290144",
        "meta_mean_motion": 14.52337635,
        "meta_eccentricity": 0.00217459,
        "meta_inclination": 86.3933,
        "meta_ra_of_asc_node": 52.8332,
        "meta_arg_of_pericenter": 111.6226,
        "meta_mean_anomaly": 265.3104,
        "meta_ephemeris_type": 0,
        "meta_classification_type": "U",
        "meta_norad_cat_id": 34833,
        "meta_element_set_no": 999,
        "meta_rev_at_epoch": 87653,
        "meta_bstar": 0.0012181762,
        "meta_mean_motion_dot": 4.99e-05,
        "meta_mean_motion_ddot": 0,
        "tle_line1": "1 34833U 97051MH  25342.47248021  .00004990  00000+0  12182-2 0  9994",
        "tle_line2": "2 34833  86.3933  52.8332 0021745 111.6226 265.3104 14.52337635876535"
      },
      "geometry": {
        "type": "Point",
        "coordinates": [
          -122.81788316100565,
          -52.19629297939976
        ]
      }
    },
    {
      "type": "Feature",
      "properties": {
        "norad_id": 34870,
        "name": "IRIDIUM 33 DEB",
        "group": "iridium-33-debris",
        "lat": -78.38828339106603,
        "lon": 154.00847610461315,
        "alt_km": 643.3555170810623,
        "timestamp": "2025-12-09T04:51:47.876950+00:00",
        "meta_object_name": "IRIDIUM 33 DEB",
        "meta_object_id": "1997-051MQ",
        "meta_epoch": "2025-12-07T16:41:29.147136",
        "meta_mean_motion": 14.76272854,
        "meta_eccentricity": 0.00154972,
        "meta_inclination": 86.3098,
        "meta_ra_of_asc_node": 316.3932,
        "meta_arg_of_pericenter": 201.8058,
        "meta_mean_anomaly": 332.1989,
        "meta_ephemeris_type": 0,
        "meta_classification_type": "U",
        "meta_norad_cat_id": 34870,
        "meta_element_set_no": 999,
        "meta_rev_at_epoch": 88836,
        "meta_bstar": 0.0021061979,
        "meta_mean_motion_dot": 0.00014658,
        "meta_mean_motion_ddot": 0,
        "tle_line1": "1 34870U 97051MQ  25341.69547624  .00014658  00000+0  21062-2 0  9998",
        "tle_line2": "2 34870  86.3098 316.3932 0015497 201.8058 332.1989 14.76272854888369"
      },
      "geometry": {
        "type": "Point",
        "coordinates": [
          154.00847610461315,
          -78.38828339106603
        ]
      }
    },
    {
      "type": "Feature",
      "properties": {
        "norad_id": 34896,
        "name": "IRIDIUM 33 DEB",
        "group": "iridium-33-debris",
        "lat": -48.59835443855584,
        "lon": 152.4471671655094,
        "alt_km": 663.2273826365299,
        "timestamp": "2025-12-09T04:51:47.876960+00:00",
        "meta_object_name": "IRIDIUM 33 DEB",
        "meta_object_id": "1997-051MY",
        "meta_epoch": "2025-12-08T06:47:45.155328",
        "meta_mean_motion": 14.66206819,
        "meta_eccentricity": 0.00239488,
        "meta_inclination": 86.3293,
        "meta_ra_of_asc_node": 328.6838,
        "meta_arg_of_pericenter": 231.0822,
        "meta_mean_anomaly": 187.3834,
        "meta_ephemeris_type": 0,
        "meta_classification_type": "U",
        "meta_norad_cat_id": 34896,
        "meta_element_set_no": 999,
        "meta_rev_at_epoch": 87554,
        "meta_bstar": 0.001338628,
        "meta_mean_motion_dot": 7.421e-05,
        "meta_mean_motion_ddot": 0,
        "tle_line1": "1 34896U 97051MY  25342.28316152  .00007421  00000+0  13386-2 0  9992",
        "tle_line2": "2 34896  86.3293 328.6838 0023948 231.0822 187.3834 14.66206819875541"
      },
      "geometry": {
        "type": "Point",
        "coordinates": [
          152.4471671655094,
          -48.59835443855584
        ]
      }
    },
    {
      "type": "Feature",
      "properties": {
        "norad_id": 34926,
        "name": "IRIDIUM 33 DEB",
        "group": "iridium-33-debris",
        "lat": 72.00572895008175,
        "lon": 177.89112170789852,
        "alt_km": 756.7598018752287,
        "timestamp": "2025-12-09T04:51:47.876971+00:00",
        "meta_object_name": "IRIDIUM 33 DEB",
        "meta_object_id": "1997-051NF",
        "meta_epoch": "2025-12-08T08:36:48.617856",
        "meta_mean_motion": 14.5409802,
        "meta_eccentricity": 0.007612,
        "meta_inclination": 86.1323,
        "meta_ra_of_asc_node": 10.3036,
        "meta_arg_of_pericenter": 307.7909,
        "meta_mean_anomaly": 65.4893,
        "meta_ephemeris_type": 0,
        "meta_classification_type": "U",
        "meta_norad_cat_id": 34926,
        "meta_element_set_no": 999,
        "meta_rev_at_epoch": 86393,
        "meta_bstar": 0.0060894257,
        "meta_mean_motion_dot": 0.00026822,
        "meta_mean_motion_ddot": 0,
        "tle_line1": "1 34926U 97051NF  25342.35889604  .00026822  00000+0  60894-2 0  9993",
        "tle_line2": "2 34926  86.1323  10.3036 0076120 307.7909  65.4893 14.54098020863930"
      },
      "geometry": {
        "type": "Point",
        "coordinates": [
          177.89112170789852,
          72.00572895008175
        ]
      }
    },
    {
      "type": "Feature",
      "properties": {
        "norad_id": 34985,
        "name": "IRIDIUM 33 DEB",
        "group": "iridium-33-debris",
        "lat": 28.484784576356788,
        "lon": 60.36270948873977,
        "alt_km": 763.9986524957958,
        "timestamp": "2025-12-09T04:51:47.876981+00:00",
        "meta_object_name": "IRIDIUM 33 DEB",
        "meta_object_id": "1997-051NR",
        "meta_epoch": "2025-12-08T05:40:04.658592",
        "meta_mean_motion": 14.41979756,
        "meta_eccentricity": 0.00202828,
        "meta_inclination": 86.3695,
        "meta_ra_of_asc_node": 58.8006,
        "meta_arg_of_pericenter": 235.2895,
        "meta_mean_anomaly": 179.3648,
        "meta_ephemeris_type": 0,
        "meta_classification_type": "U",
        "meta_norad_cat_id": 34985,
        "meta_element_set_no": 999,
        "meta_rev_at_epoch": 87110,
        "meta_bstar": 0.0010950657,
        "meta_mean_motion_dot": 3.617e-05,
        "meta_mean_motion_ddot": 0,
        "tle_line1": "1 34985U 97051NR  25342.23616503  .00003617  00000+0  10951-2 0  9997",
        "tle_line2": "2 34985  86.3695  58.8006 0020282 235.2895 179.3648 14.41979756871101"
      },
      "geometry": {
        "type": "Point",
        "coordinates": [
          60.36270948873977,
          28.484784576356788
        ]
      }
    },
    {
      "type": "Feature",
      "properties": {
        "norad_id": 35051,
        "name": "IRIDIUM 33 DEB",
        "group": "iridium-33-debris",
        "lat": -70.02850119885701,
        "lon": -159.40738200787038,
        "alt_km": 747.465046945732,
        "timestamp": "2025-12-09T04:51:47.876991+00:00",
        "meta_object_name": "IRIDIUM 33 DEB",
        "meta_object_id": "1997-051NX",
        "meta_epoch": "2025-12-08T19:24:58.044096",
        "meta_mean_motion": 14.47572985,
        "meta_eccentricity": 0.0010583,
        "meta_inclination": 86.3244,
        "meta_ra_of_asc_node": 10.5757,
        "meta_arg_of_pericenter": 101.6319,
        "meta_mean_anomaly": 258.6072,
        "meta_ephemeris_type": 0,
        "meta_classification_type": "U",
        "meta_norad_cat_id": 35051,
        "meta_element_set_no": 999,
        "meta_rev_at_epoch": 86939,
        "meta_bstar": 0.0011378,
        "meta_mean_motion_dot": 4.208e-05,
        "meta_mean_motion_ddot": 0,
        "tle_line1": "1 35051U 97051NX  25342.80900514  .00004208  00000+0  11378-2 0  9994",
        "tle_line2": "2 35051  86.3244  10.5757 0010583 101.6319 258.6072 14.47572985869393"
      },
      "geometry": {
        "type": "Point",
        "coordinates": [
          -159.40738200787038,
          -70.02850119885701
        ]
      }
    }
  ]
}